NORAD_CAT_ID,OBJECT_NAME,OBJECT_TYPE,EPOCH,MEAN_MOTION,ECCENTRICITY,INCLINATION,RA_OF_ASC_NODE,ARG_OF_PERICENTER,MEAN_ANOMALY,BSTAR,MEAN_MOTION_DOT,MEAN_MOTION_DDOT,TLE_LINE0,TLE_LINE1,TLE_LINE2,SEMIMAJOR_AXIS,PERIOD,APOGEE,PERIGEE,DECAYED
53175.0,STARLINK-4292,PAYLOAD,2023-01-30 22:11:01,15.08844704,0.0001305,53.2138,223.7986,85.3158,274.7983,0.00011773,1.586e-05,0.0,0 STARLINK-4292,1 53175U 22083AV  23030.92432021  .00001586  00000-0  11773-3 0  9999,2 53175  53.2138 223.7986 0001305  85.3158 274.7983 15.08844704 30050,6917.866,95.437,540.634,538.828,0.0
53175.0,STARLINK-4292,PAYLOAD,2023-01-31 12:29:29,15.08839288,0.00013,53.2141,221.122,83.6614,276.4526,8.6384e-05,1.087e-05,0.0,0 STARLINK-4292,1 53175U 22083AV  23031.52048411  .00001087  00000-0  86384-4 0  9999,2 53175  53.2141 221.1220 0001300  83.6614 276.4526 15.08839288 30143,6917.883,95.438,540.647,538.848,0.0
53175.0,STARLINK-4292,PAYLOAD,2023-01-31 22:01:48,15.08842531,0.0001309,53.2139,219.3374,84.2423,275.8718,9.9024e-05,1.289e-05,0.0,0 STARLINK-4292,1 53175U 22083AV  23031.91792137  .00001289  00000-0  99024-4 0  9992,2 53175  53.2139 219.3374 0001309  84.2423 275.8718 15.08842531 30201,6917.873,95.437,540.643,538.832,0.0
53175.0,STARLINK-4292,PAYLOAD,2023-02-01 05:58:44,15.08842495,0.0001327,53.2138,217.8507,83.4756,276.6388,8.3799e-05,1.046e-05,0.0,0 STARLINK-4292,1 53175U 22083AV  23032.24912135  .00001046  00000-0  83799-4 0  9994,2 53175  53.2138 217.8507 0001327  83.4756 276.6388 15.08842495 30257,6917.873,95.437,540.656,538.82,0.0
53175.0,STARLINK-4292,PAYLOAD,2023-02-02 12:11:04,15.08837464,0.0001359,53.2136,212.1994,88.2675,271.8472,-1.7376e-05,-5.64e-06,0.0,0 STARLINK-4292,1 53175U 22083AV  23033.50768552 -.00000564  00000-0 -17376-4 0  9990,2 53175  53.2136 212.1994 0001359  88.2675 271.8472 15.08837464 30443,6917.888,95.438,540.693,538.813,0.0
53175.0,STARLINK-4292,PAYLOAD,2023-02-03 12:01:50,15.088409,0.0001228,53.2138,207.7392,88.8672,271.2461,4.0705e-05,3.6e-06,0.0,0 STARLINK-4292,1 53175U 22083AV  23034.50128299  .00000360  00000-0  40705-4 0  9993,2 53175  53.2138 207.7392 0001228  88.8672 271.2461 15.08840900 30592,6917.878,95.437,540.592,538.893,0.0
53175.0,STARLINK-4292,PAYLOAD,2023-02-04 03:55:42,15.08836191,0.000136,53.2127,204.7668,82.8381,277.2765,9.6406e-05,1.247e-05,0.0,0 STARLINK-4292,1 53175U 22083AV  23035.16368480  .00001247  00000-0  96406-4 0  9998,2 53175  53.2127 204.7668 0001360  82.8381 277.2765 15.08836191 31334,6917.892,95.438,540.698,538.816,0.0
53175.0,STARLINK-4292,PAYLOAD,2023-02-04 11:52:38,15.08836579,0.0001158,53.2133,203.2794,86.4358,273.6767,7.0073e-05,8.27e-06,0.0,0 STARLINK-4292,1 53175U 22083AV  23035.49488535  .00000827  00000-0  70073-4 0  9993,2 53175  53.2133 203.2794 0001158  86.4358 273.6767 15.08836579 30740,6917.891,95.438,540.557,538.955,0.0
53175.0,STARLINK-4292,PAYLOAD,2023-02-04 21:24:56,15.0884284,0.000109,53.2145,201.495,85.8517,274.2599,9.2869e-05,1.191e-05,0.0,0 STARLINK-4292,1 53175U 22083AV  23035.89231995  .00001191  00000-0  92869-4 0  9995,2 53175  53.2145 201.4950 0001090  85.8517 274.2599 15.08842840 30807,6917.872,95.437,540.491,538.983,0.0
53175.0,STARLINK-4292,PAYLOAD,2023-02-05 13:18:48,15.08833791,0.0001229,53.2146,198.5211,88.3951,271.7182,-1.3066e-05,-4.96e-06,0.0,0 STARLINK-4292,1 53175U 22083AV  23036.55473064 -.00000496  00000-0 -13066-4 0  9995,2 53175  53.2146 198.5211 0001229  88.3951 271.7182 15.08833791 31545,6917.899,95.438,540.615,538.914,0.0
53175.0,STARLINK-4292,PAYLOAD,2023-02-05 19:40:20,15.08839757,0.0001276,53.2139,197.3316,83.3609,276.7528,1.3396e-06,-2.67e-06,0.0,0 STARLINK-4292,1 53175U 22083AV  23036.81968676 -.00000267  00000-0  13396-5 0  9994,2 53175  53.2139 197.3316 0001276  83.3609 276.7528 15.08839757 30947,6917.881,95.438,540.629,538.863,0.0
53175.0,STARLINK-4292,PAYLOAD,2023-02-06 03:37:16,15.08835709,0.000126,53.2148,195.8453,86.9982,273.1154,2.7638e-05,1.52e-06,0.0,0 STARLINK-4292,1 53175U 22083AV  23037.15088872  .00000152  00000-0  27638-4 0  9998,2 53175  53.2148 195.8453 0001260  86.9982 273.1154 15.08835709 30992,6917.894,95.438,540.63,538.887,0.0
53175.0,STARLINK-4292,PAYLOAD,2023-02-06 17:55:44,15.08848246,0.0001377,53.215,193.1696,92.0759,268.0391,2.69e-05,1.4e-06,0.0,0 STARLINK-4292,1 53175U 22083AV  23037.74704228  .00000140  00000-0  26900-4 0  9991,2 53175  53.2150 193.1696 0001377  92.0759 268.0391 15.08848246 31722,6917.855,95.437,540.673,538.768,0.0
53175.0,STARLINK-4292,PAYLOAD,2023-02-07 09:49:36,15.08839184,0.0001368,53.2155,190.1962,86.882,273.2329,0.00012104,1.639e-05,0.0,0 STARLINK-4292,1 53175U 22083AV  23038.40944623  .00001639  00000-0  12104-3 0  9994,2 53175  53.2155 190.1962 0001368  86.8820 273.2329 15.08839184 31821,6917.883,95.438,540.694,538.802,0.0
53175.0,STARLINK-4292,PAYLOAD,2023-02-07 14:35:45,15.08843192,0.0001454,53.2156,189.3045,85.473,274.6428,0.00012533,1.707e-05,0.0,0 STARLINK-4292,1 53175U 22083AV  23038.60816391  .00001707  00000-0  12533-3 0  9998,2 53175  53.2156 189.3045 0001454  85.4730 274.6428 15.08843192 31217,6917.871,95.437,540.741,538.73,0.0
53175.0,STARLINK-4292,PAYLOAD,2023-02-07 16:11:08,15.0884378,0.000138,53.215,189.0072,81.0157,279.0991,0.00012735,1.74e-05,0.0,0 STARLINK-4292,1 53175U 22083AV  23038.67440340  .00001740  00000-0  12735-3 0  9993,2 53175  53.2150 189.0072 0001380  81.0157 279.0991 15.08843780 31229,6917.869,95.437,540.689,538.779,0.0
53175.0,STARLINK-4292,PAYLOAD,2023-02-08 03:18:50,15.08845432,0.0001291,53.215,186.926,90.4239,269.6901,0.00010836,1.437e-05,0.0,0 STARLINK-4292,1 53175U 22083AV  23039.13808202  .00001437  00000-0  10836-3 0  9993,2 53175  53.2150 186.9260 0001291  90.4239 269.6901 15.08845432 31299,6917.864,95.437,540.622,538.836,0.0
53175.0,STARLINK-4292,PAYLOAD,2023-02-08 17:37:18,15.08847008,0.0001334,53.2155,184.2425,114.149,245.9642,1.7516e-05,-9e-08,0.0,0 STARLINK-4292,1 53175U 22083AV  23039.73424102 -.00000009  00000-0  17516-4 0  9990,2 53175  53.2155 184.2425 0001334 114.1490 245.9642 15.08847008 32021,6917.859,95.437,540.647,538.801,0.0
53175.0,STARLINK-4292,PAYLOAD,2023-02-09 03:09:37,15.08839869,0.0001353,53.2156,182.4655,74.6037,285.5104,1.9613e-05,2.4e-07,0.0,0 STARLINK-4292,1 53175U 22083AV  23040.13168746  .00000024  00000-0  19613-4 0  9991,2 53175  53.2156 182.4655 0001353  74.6037 285.5104 15.08839869 32080,6917.881,95.438,540.682,538.81,0.0
53175.0,STARLINK-4292,PAYLOAD,2023-02-09 14:17:19,15.08837612,0.000106,53.2155,180.3791,104.1575,255.9535,0.00011847,1.598e-05,0.0,0 STARLINK-4292,1 53175U 22083AV  23040.59536533  .00001598  00000-0  11847-3 0  9991,2 53175  53.2155 180.3791 0001060 104.1575 255.9535 15.08837612 31518,6917.888,95.438,540.486,539.019,0.0
53175.0,STARLINK-4292,PAYLOAD,2023-02-10 12:32:44,15.08832776,8.74e-05,53.2144,176.2193,76.4183,283.6906,7.0319e-05,8.31e-06,0.0,0 STARLINK-4292,1 53175U 22083AV  23041.52273326  .00000831  00000-0  70319-4 0  9992,2 53175  53.2144 176.2193 0000874  76.4183 283.6906 15.08832776 32296,6917.902,95.438,540.372,539.163,0.0
53175.0,STARLINK-4292,PAYLOAD,2023-02-10 15:43:30,15.08839283,0.0001057,53.2146,175.6247,88.6127,271.4987,5.69e-05,6.18e-06,0.0,0 STARLINK-4292,1 53175U 22083AV  23041.65521003  .00000618  00000-0  56900-4 0  9997,2 53175  53.2146 175.6247 0001057  88.6127 271.4987 15.08839283 31673,6917.883,95.438,540.479,539.016,0.0
53175.0,STARLINK-4292,PAYLOAD,2023-02-11 07:37:22,15.08828595,0.0001131,53.2163,172.6523,96.3214,263.7907,5.3178e-05,5.58e-06,0.0,0 STARLINK-4292,1 53175U 22083AV  23042.31761960  .00000558  00000-0  53178-4 0  9996,2 53175  53.2163 172.6523 0001131  96.3214 263.7907 15.08828595 31773,6917.915,95.438,540.563,538.998,0.0
53175.0,STARLINK-4292,PAYLOAD,2023-02-11 18:45:02,15.08852808,9.44e-05,53.2147,170.5652,126.7932,233.3147,0.000111,1.48e-05,0.0,0 STARLINK-4292,1 53175U 22083AV  23042.78128046  .00001480  00000-0  11100-3 0  9992,2 53175  53.2147 170.5652 0000944 126.7932 233.3147 15.08852808 32483,6917.841,95.437,540.359,539.053,0.0
53175.0,STARLINK-4292,PAYLOAD,2023-02-12 17:00:27,15.08840641,0.0001151,53.2146,166.4033,115.3767,244.7344,0.00012621,1.721e-05,0.0,0 STARLINK-4292,1 53175U 22083AV  23043.70865444  .00001721  00000-0  12621-3 0  9992,2 53175  53.2146 166.4033 0001151 115.3767 244.7344 15.08840641 32623,6917.878,95.438,540.54,538.947,0.0
53175.0,STARLINK-4292,PAYLOAD,2023-02-13 08:54:19,15.08829125,0.0001105,53.2131,163.4315,99.7226,260.3891,2.2633e-05,7.2e-07,0.0,0 STARLINK-4292,1 53175U 22083AV  23044.37106068  .00000072  00000-0  22633-4 0  9999,2 53175  53.2131 163.4315 0001105  99.7226 260.3891 15.08829125 32727,6917.914,95.438,540.543,539.014,0.0
53175.0,STARLINK-4292,PAYLOAD,2023-02-13 13:40:28,15.0884712,0.0001082,53.214,162.5384,114.3127,245.7978,0.00014587,2.035e-05,0.0,0 STARLINK-4292,1 53175U 22083AV  23044.56977131  .00002035  00000-0  14587-3 0  9996,2 53175  53.2140 162.5384 0001082 114.3127 245.7978 15.08847120 32752,6917.859,95.437,540.472,538.975,0.0
53175.0,STARLINK-4292,PAYLOAD,2023-02-14 00:48:10,15.08842655,0.000105,53.2143,160.4574,111.3748,248.7356,-3.2087e-05,-7.98e-06,0.0,0 STARLINK-4292,1 53175U 22083AV  23045.03345305 -.00000798  00000-0 -32087-4 0  9993,2 53175  53.2143 160.4574 0001050 111.3748 248.7356 15.08842655 32823,6917.872,95.437,540.464,539.011,0.0
53175.0,STARLINK-4292,PAYLOAD,2023-02-14 07:09:44,15.08824518,0.0001204,53.2149,159.2672,107.5947,252.5177,3.6523e-05,2.93e-06,0.0,0 STARLINK-4292,1 53175U 22083AV  23045.29843024  .00000293  00000-0  36523-4 0  9999,2 53175  53.2149 159.2672 0001204 107.5947 252.5177 15.08824518 32869,6917.928,95.439,540.626,538.96,0.0
53175.0,STARLINK-4292,PAYLOAD,2023-02-14 13:31:15,15.08840827,0.0001338,53.2155,158.0777,112.7989,247.3145,0.00014119,1.96e-05,0.0,0 STARLINK-4292,1 53175U 22083AV  23045.56337802  .00001960  00000-0  14119-3 0  9999,2 53175  53.2155 158.0777 0001338 112.7989 247.3145 15.08840827 32263,6917.878,95.438,540.668,538.817,0.0
